{"type": "FeatureCollection", "features": [ {"type": "Feature", "properties": {"norad_id": 30663, "name": "FENGYUN 1C DEB", "group": "fengyun-1c-debris", "lat": 1.163197392518059, "lon": -84.09359623290851, "alt_km": 1243.9871212442467, "timestamp": "2025-12-26T12:57:39.550675+00:00", "meta": {"OBJECT_NAME": "FENGYUN 1C DEB", "OBJECT_ID": "1999-025APV", "EPOCH": "2025-12-26T00:15:07.187040", "MEAN_MOTION": 13.23217109, "ECCENTRICITY": 0.06496593, "INCLINATION": 99.3033, "RA_OF_ASC_NODE": 275.6212, "ARG_OF_PERICENTER": 104.3174, "MEAN_ANOMALY": 263.0938, "EPHEMERIS_TYPE": 0, "CLASSIFICATION_TYPE": "U", "NORAD_CAT_ID": 30663, "ELEMENT_SET_NO": 999, "REV_AT_EPOCH": 89223, "BSTAR": 0.0030033194, "MEAN_MOTION_DOT": 3.918e-05, "MEAN_MOTION_DDOT": 0}, "tle": {"line1": "1 30663U 99025APV 25360.01049985  .00003918  00000+0  30033-2 0  9996", "line2": "2 30663  99.3033 275.6212 0649659 104.3174 263.0938 13.23217109892235"}}, "geometry": {"type": "Point", "coordinates": [-84.09359623290851, 1.163197392518059]}}, {"type": "Feature", "properties": {"norad_id": 30665, "name": "FENGYUN 1C DEB", "group": "fengyun-1c-debris", "lat": -39.09518057620391, "lon": -19.908536492454246, "alt_km": 902.6931523551866, "timestamp": "2025-12-26T12:57:39.550685+00:00", "meta": {"OBJECT_NAME": "FENGYUN 1C DEB", "OBJECT_ID": "1999-025APX", "EPOCH": "2025-12-25T22:08:24.038880", "MEAN_MOTION": 14.12410145, "ECCENTRICITY": 0.0067768, "INCLINATION": 99.2095, "RA_OF_ASC_NODE": 331.8821, "ARG_OF_PERICENTER": 164.7677, "MEAN_ANOMALY": 257.053, "EPHEMERIS_TYPE": 0, "CLASSIFICATION_TYPE": "U", "NORAD_CAT_ID": 30665, "ELEMENT_SET_NO": 999, "REV_AT_EPOCH": 96156, "BSTAR": 0.0014411, "MEAN_MOTION_DOT": 2.67e-05, "MEAN_MOTION_DDOT": 0}, "tle": {"line1": "1 30665U 99025APX 25359.92250045  .00002670  00000+0  14411-2 0  9993", "line2": "2 30665  99.2095 331.8821 0067768 164.7677 257.0530 14.12410145961566"}}, "geometry": {"type": "Point", "coordinates": [-19.908536492454246, -39.09518057620391]}}, {"type": "Feature", "properties": {"norad_id": 30666, "name": "FENGYUN 1C DEB", "group": "fengyun-1c-debris", "lat": 2.116675523160721, "lon": -16.606246110171305, "alt_km": 898.0655613291692, "timestamp": "2025-12-26T12:57:39.550696+00:00", "meta": {"OBJECT_NAME": "FENGYUN 1C DEB", "OBJECT_ID": "1999-025APY", "EPOCH": "2025-12-26T06:10:46.286688", "MEAN_MOTION": 14.02568492, "ECCENTRICITY": 0.00614127, "INCLINATION": 98.8237, "RA_OF_ASC_NODE": 343.449, "ARG_OF_PERICENTER": 107.0609, "MEAN_ANOMALY": 269.9489, "EPHEMERIS_TYPE": 0, "CLASSIFICATION_TYPE": "U", "NORAD_CAT_ID": 30666, "ELEMENT_SET_NO": 999, "REV_AT_EPOCH": 96300, "BSTAR": 0.00047919805, "MEAN_MOTION_DOT": 7.08e-06, "MEAN_MOTION_DDOT": 0}, "tle": {"line1": "1 30666U 99025APY 25360.25748017  .00000708  00000+0  47920-3 0  9995", "line2": "2 30666  98.8237 343.4490 0061412 107.0609 269.9489 14.02568492963000"}}, "geometry": {"type": "Point", "coordinates": [-16.606246110171305, 2.116675523160721]}}, {"type": "Feature", "properties": {"norad_id": 30668, "name": "FENGYUN 1C DEB", "group": "fengyun-1c-debris", "lat": 49.99488433069315, "lon": 62.80834084693398, "alt_km": 899.6595709544499, "timestamp": "2025-12-26T12:57:39.550706+00:00", "meta": {"OBJECT_NAME": "FENGYUN 1C DEB", "OBJECT_ID": "1999-025AQA", "EPOCH": "2025-12-24T18:49:33.972672", "MEAN_MOTION": 14.12401131, "ECCENTRICITY": 0.00799696, "INCLINATION": 99.1313, "RA_OF_ASC_NODE": 72.0687, "ARG_OF_PERICENTER": 212.8893, "MEAN_ANOMALY": 276.6111, "EPHEMERIS_TYPE": 0, "CLASSIFICATION_TYPE": "U", "NORAD_CAT_ID": 30668, "ELEMENT_SET_NO": 999, "REV_AT_EPOCH": 96225, "BSTAR": 0.0016829893, "MEAN_MOTION_DOT": 3.153e-05, "MEAN_MOTION_DDOT": 0}, "tle": {"line1": "1 30668U 99025AQA 25358.78442098  .00003153  00000+0  16830-2 0  9994", "line2": "2 30668  99.1313  72.0687 0079969 212.8893 276.6111 14.12401131962250"}}, "geometry": {"type": "Point", "coordinates": [62.80834084693398, 49.99488433069315]}}, {"type": "Feature", "properties": {"norad_id": 30669, "name": "FENGYUN 1C DEB", "group": "fengyun-1c-debris", "lat": -11.205706765051351, "lon": -61.772591877750045, "alt_km": 961.6414677304701, "timestamp": "2025-12-26T12:57:39.550716+00:00", "meta": {"OBJECT_NAME": "FENGYUN 1C DEB", "OBJECT_ID": "1999-025AQB", "EPOCH": "2025-12-25T08:30:55.303200", "MEAN_MOTION": 14.02775158, "ECCENTRICITY": 0.0118356, "INCLINATION": 98.6364, "RA_OF_ASC_NODE": 295.3776, "ARG_OF_PERICENTER": 140.8637, "MEAN_ANOMALY": 346.5174, "EPHEMERIS_TYPE": 0, "CLASSIFICATION_TYPE": "U", "NORAD_CAT_ID": 30669, "ELEMENT_SET_NO": 999, "REV_AT_EPOCH": 95630, "BSTAR": 0.0013925, "MEAN_MOTION_DOT": 2.25e-05, "MEAN_MOTION_DDOT": 0}, "tle": {"line1": "1 30669U 99025AQB 25359.35480675  .00002250  00000+0  13925-2 0  9991", "line2": "2 30669  98.6364 295.3776 0118356 140.8637 346.5174 14.02775158956307"}}, "geometry": {"type": "Point", "coordinates": [-61.772591877750045, -11.205706765051351]}}, {"type": "Feature", "properties": {"norad_id": 30670, "name": "FENGYUN 1C DEB", "group": "fengyun-1c-debris", "lat": -21.540196271362664, "lon": -138.81112921024803, "alt_km": 872.8459922862012, "timestamp": "2025-12-26T12:57:39.550726+00:00", "meta": {"OBJECT_NAME": "FENGYUN 1C DEB", "OBJECT_ID": "1999-025AQC", "EPOCH": "2025-12-26T02:05:28.749120", "MEAN_MOTION": 14.15822695, "ECCENTRICITY": 0.00394046, "INCLINATION": 98.7089, "RA_OF_ASC_NODE": 44.2149, "ARG_OF_PERICENTER": 32.0747, "MEAN_ANOMALY": 22.4128, "EPHEMERIS_TYPE": 0, "CLASSIFICATION_TYPE": "U", "NORAD_CAT_ID": 30670, "ELEMENT_SET_NO": 999, "REV_AT_EPOCH": 97341, "BSTAR": 9.567948e-05, "MEAN_MOTION_DOT": 1.46e-06, "MEAN_MOTION_DDOT": 0}, "tle": {"line1": "1 30670U 99025AQC 25360.08713830  .00000146  00000+0  95679-4 0  9997", "line2": "2 30670  98.7089  44.2149 0039404  32.0747  22.4128 14.15822695973412"}}, "geometry": {"type": "Point", "coordinates": [-138.81112921024803, -21.540196271362664]}}, {"type": "Feature", "properties": {"norad_id": 30671, "name": "FENGYUN 1C DEB", "group": "fengyun-1c-debris", "lat": -54.468392094709984, "lon": -127.89117526924773, "alt_km": 961.1695059178965, "timestamp": "2025-12-26T12:57:39.550736+00:00", "meta": {"OBJECT_NAME": "FENGYUN 1C DEB", "OBJECT_ID": "1999-025AQD", "EPOCH": "2025-12-26T03:22:26.992416", "MEAN_MOTION": 13.95505723, "ECCENTRICITY": 0.0125669, "INCLINATION": 99.2516, "RA_OF_ASC_NODE": 64.9013, "ARG_OF_PERICENTER": 356.4769, "MEAN_ANOMALY": 34.5639, "EPHEMERIS_TYPE": 0, "CLASSIFICATION_TYPE": "U", "NORAD_CAT_ID": 30671, "ELEMENT_SET_NO": 999, "REV_AT_EPOCH": 95382, "BSTAR": 0.0011434066, "MEAN_MOTION_DOT": 1.613e-05, "MEAN_MOTION_DDOT": 0}, "tle": {"line1": "1 30671U 99025AQD 25360.14059019  .00001613  00000+0  11434-2 0  9992", "line2": "2 30671  99.2516  64.9013 0125669 356.4769  34.5639 13.95505723953820"}}, "geometry": {"type": "Point", "coordinates": [-127.89117526924773, -54.468392094709984]}}, {"type": "Feature", "properties": {"norad_id": 30673, "name": "FENGYUN 1C DEB", "group": "fengyun-1c-debris", "lat": 81.06406671947138, "lon": -43.6759276680734, "alt_km": 837.254094762724, "timestamp": "2025-12-26T12:57:39.550746+00:00", "meta": {"OBJECT_NAME": "FENGYUN 1C DEB", "OBJECT_ID": "1999-025AQF", "EPOCH": "2025-12-26T02:31:33.077280", "MEAN_MOTION": 14.03458047, "ECCENTRICITY": 0.00527788, "INCLINATION": 98.9175, "RA_OF_ASC_NODE": 49.0056, "ARG_OF_PERICENTER": 106.1092, "MEAN_ANOMALY": 308.9431, "EPHEMERIS_TYPE": 0, "CLASSIFICATION_TYPE": "U", "NORAD_CAT_ID": 30673, "ELEMENT_SET_NO": 999, "REV_AT_EPOCH": 96719, "BSTAR": 6.407493e-05, "MEAN_MOTION_DOT": 5.9e-07, "MEAN_MOTION_DDOT": 0}, "tle": {"line1": "1 30673U 99025AQF 25360.10524395  .00000059  00000+0  64075-4 0  9998", "line2": "2 30673  98.9175  49.0056 0052778 106.1092 308.9431 14.03458047967198"}}, "geometry": {"type": "Point", "coordinates": [-43.6759276680734, 81.06406671947138]}}, {"type": "Feature", "properties": {"norad_id": 30674, "name": "FENGYUN 1C DEB", "group": "fengyun-1c-debris", "lat": 4.093312010526983, "lon": 164.66266825020537, "alt_km": 578.6179990509418, "timestamp": "2025-12-26T12:57:39.550757+00:00", "meta": {"OBJECT_NAME": "FENGYUN 1C DEB", "OBJECT_ID": "1999-025AQG", "EPOCH": "2025-12-26T04:55:34.413024", "MEAN_MOTION": 14.97820235, "ECCENTRICITY": 0.0024207, "INCLINATION": 98.9379, "RA_OF_ASC_NODE": 164.9252, "ARG_OF_PERICENTER": 265.9457, "MEAN_ANOMALY": 93.8994, "EPHEMERIS_TYPE": 0, "CLASSIFICATION_TYPE": "U", "NORAD_CAT_ID": 30674, "ELEMENT_SET_NO": 999, "REV_AT_EPOCH": 97553, "BSTAR": 0.0076145827, "MEAN_MOTION_DOT": 0.00091073, "MEAN_MOTION_DDOT": 0}, "tle": {"line1": "1 30674U 99025AQG 25360.20525941  .00091073  00000+0  76146-2 0  9994", "line2": "2 30674  98.9379 164.9252 0024207 265.9457  93.8994 14.97820235975531"}}, "geometry": {"type": "Point", "coordinates": [164.66266825020537, 4.093312010526983]}}, {"type": "Feature", "properties": {"norad_id": 30675, "name": "FENGYUN 1C DEB", "group": "fengyun-1c-debris", "lat": -56.12903672655445, "lon": -113.58395630279452, "alt_km": 818.1231886978294, "timestamp": "2025-12-26T12:57:39.550767+00:00", "meta": {"OBJECT_NAME": "FENGYUN 1C DEB", "OBJECT_ID": "1999-025AQH", "EPOCH": "2025-12-26T05:25:05.315808", "MEAN_MOTION": 14.27505797, "ECCENTRICITY": 0.00534967, "INCLINATION": 98.7537, "RA_OF_ASC_NODE": 79.3717, "ARG_OF_PERICENTER": 131.0193, "MEAN_ANOMALY": 291.2702, "EPHEMERIS_TYPE": 0, "CLASSIFICATION_TYPE": "U", "NORAD_CAT_ID": 30675, "ELEMENT_SET_NO": 999, "REV_AT_EPOCH": 97084, "BSTAR": 0.0016300226, "MEAN_MOTION_DOT": 4.024e-05, "MEAN_MOTION_DDOT": 0}, "tle": {"line1": "1 30675U 99025AQH 25360.22575597  .00004024  00000+0  16300-2 0  9995", "line2": "2 30675  98.7537  79.3717 0053496 131.0193 291.2702 14.27505797970849"}}, "geometry": {"type": "Point", "coordinates": [-113.58395630279452, -56.12903672655445]}}]}